OBJECT_NAME,OBJECT_ID,EPOCH,MEAN_MOTION,ECCENTRICITY,INCLINATION,RA_OF_ASC_NODE,ARG_OF_PERICENTER,MEAN_ANOMALY,EPHEMERIS_TYPE,CLASSIFICATION_TYPE,NORAD_CAT_ID,ELEMENT_SET_NO,REV_AT_EPOCH,BSTAR,MEAN_MOTION_DOT,MEAN_MOTION_DDOT
INTELSAT 23 (IS-23),2012-057A,2026-07-17T06:10:41.788704,1.00263115,.0000705,0.0172,318.2159,293.9310,82.5777,0,U,38867,999,5025,0,-.295E-5,0
FM-6,2013-058A,2026-07-17T00:43:18.265728,1.00271340,.00015151,0.0136,35.2929,146.7149,7.3125,0,U,39360,999,4637,0,-.26E-6,0
INTELSAT 30 (IS-30),2014-062A,2026-07-17T05:58:42.937248,1.00274421,.00015552,0.0190,56.6019,335.0842,258.0090,0,U,40271,999,709,0,-.161E-5,0
DIRECTV 14,2014-078B,2026-07-16T20:29:44.349792,1.00271035,.00005216,0.0102,43.3103,316.5446,143.0174,0,U,40333,999,4234,0,-.136E-5,0
DIRECTV 15,2015-026A,2026-07-16T14:32:38.111424,1.00268719,.00002639,0.0230,76.6558,264.8032,68.2365,0,U,40663,999,4075,0,-.113E-5,0
SKY MEXICO-1,2015-026B,2026-07-17T06:03:19.995264,1.00273057,.00023237,0.0128,66.4974,66.4134,174.1894,0,U,40664,999,4075,0,-.244E-5,0
INTELSAT 34 (IS-34),2015-039A,2026-07-16T23:19:18.079392,1.00269292,.00003891,0.0104,28.9459,347.3526,212.8160,0,U,40874,999,3993,0,-.296E-5,0
INTELSAT 31 (IS-31),2016-035A,2026-07-17T05:09:38.540160,1.00270203,.00010547,0.0160,226.3671,71.4400,339.5772,0,U,41581,999,3698,0,-.161E-5,0
INTELSAT 36 (IS-36),2016-053A,2026-07-17T03:56:38.569056,1.00269624,.00024099,0.0115,36.6148,304.9550,81.0503,0,U,41747,999,3625,0,-.34E-6,0
INTELSAT 32E (IS-32E),2017-007B,2026-07-17T06:13:26.525856,1.00271064,.0000518,0.0210,60.9566,327.6657,316.6444,0,U,41945,999,3452,0,0,0
INTELSAT 35E (IS-35E),2017-041A,2026-07-17T05:51:38.771136,1.00272874,.00018784,0.0191,50.0878,68.2072,230.1718,0,U,42818,999,3311,0,-.248E-5,0
INTELSAT 37E (IS-37E),2017-059A,2026-07-17T05:43:38.824320,1.00272761,.00025984,0.0142,70.0720,50.2675,242.6145,0,U,42950,999,3236,0,-.151E-5,0
AZERSPACE 2 (IS-38),2018-074A,2026-07-17T04:55:56.949600,1.00270402,.00014157,0.0222,57.3147,59.2089,297.6130,0,U,43632,999,2874,0,0,0
HORIZONS-3E,2018-074B,2026-07-17T05:31:23.550816,1.00272627,.00009334,0.0273,229.1429,57.7490,259.9933,0,U,43633,999,2864,0,-.41E-6,0
AT&T T-16,2019-034A,2026-07-16T23:06:22.331808,1.00272918,.0000711,0.0156,72.9858,264.8400,202.6904,0,U,44333,999,2593,0,-.126E-5,0
INTELSAT 39 (IS-39),2019-049B,2026-07-17T01:35:29.634144,1.00269158,.00009356,0.0198,53.9430,293.4619,33.3157,0,U,44476,999,2542,0,0,0
GALAXY 30 (G-30),2020-056C,2026-07-17T05:50:09.291840,1.00270833,.00022227,0.0218,59.1220,59.4475,139.0435,0,U,46114,999,2159,0,0,0
GALAXY 33 (G-33),2022-128A,2026-07-17T05:47:54.507840,1.00269560,.00018227,0.0147,60.3719,53.0105,135.6434,0,U,54026,999,1404,0,.69E-6,0
GALAXY 34 (G-34),2022-128B,2026-07-17T05:49:01.899840,1.00267690,.00015716,0.0100,60.2589,62.7326,130.3159,0,U,54027,999,1421,0,.49E-6,0
GALAXY 31 (G-31),2022-153A,2026-07-17T04:08:38.984352,1.00271807,.00010647,0.0169,92.1300,27.4573,116.5480,0,U,54243,999,743,0,.3E-7,0
GALAXY 32 (G-32),2022-153B,2026-07-17T05:59:50.330112,1.00272434,.0001377,0.0104,47.3171,358.5249,248.1834,0,U,54244,999,1344,0,-.184E-5,0
GALAXY 35 (G-35),2022-170A,2026-07-17T05:59:12.890400,1.00272251,.00018473,0.0150,81.5982,34.8105,175.3484,0,U,54741,999,1319,0,-.172E-5,0
GALAXY 36 (G-36),2022-170B,2026-07-17T06:00:27.769824,1.00271883,.00025889,0.0148,138.1492,320.6083,197.4244,0,U,54742,999,1307,0,-.195E-5,0
GALAXY 37 (G-37),2023-112A,2026-07-17T05:49:31.852128,1.00269846,.0001989,0.0192,54.9239,60.5977,139.9330,0,U,57493,999,1084,0,0,0
