INTELSAT 23 (IS-23)     
1 38867U 12057A   26198.25742811 -.00000295  00000+0  00000+0 0  9998
2 38867   0.0172 318.2159 0000705 293.9310  82.5777  1.00263115 50259
FM-6                    
1 39360U 13058A   26198.03007252 -.00000026  00000+0  00000+0 0  9990
2 39360   0.0136  35.2929 0001515 146.7149   7.3125  1.00271340 46373
INTELSAT 30 (IS-30)     
1 40271U 14062A   26198.24910807 -.00000161  00000+0  00000+0 0  9991
2 40271   0.0190  56.6019 0001555 335.0842 258.0090  1.00274421  7095
DIRECTV 14              
1 40333U 14078B   26197.85398553 -.00000136  00000+0  00000+0 0  9993
2 40333   0.0102  43.3103 0000521 316.5446 143.0174  1.00271035 42341
DIRECTV 15              
1 40663U 15026A   26197.60599666 -.00000113  00000+0  00000+0 0  9999
2 40663   0.0230  76.6558 0000263 264.8032  68.2365  1.00268719 40759
SKY MEXICO-1            
1 40664U 15026B   26198.25231476 -.00000244  00000+0  00000+0 0  9999
2 40664   0.0128  66.4974 0002323  66.4134 174.1894  1.00273057 40758
INTELSAT 34 (IS-34)     
1 40874U 15039A   26197.97173703 -.00000296  00000+0  00000+0 0  9999
2 40874   0.0104  28.9459 0000389 347.3526 212.8160  1.00269292 39932
INTELSAT 31 (IS-31)     
1 41581U 16035A   26198.21502940 -.00000161  00000+0  00000+0 0  9990
2 41581   0.0160 226.3671 0001054  71.4400 339.5772  1.00270203 36988
INTELSAT 36 (IS-36)     
1 41747U 16053A   26198.16433529 -.00000034  00000+0  00000+0 0  9993
2 41747   0.0115  36.6148 0002409 304.9550  81.0503  1.00269624 36254
INTELSAT 32E (IS-32E)   
1 41945U 17007B   26198.25933479  .00000000  00000+0  00000+0 0  9994
2 41945   0.0210  60.9566 0000518 327.6657 316.6444  1.00271064 34523
INTELSAT 35E (IS-35E)   
1 42818U 17041A   26198.24419874 -.00000248  00000+0  00000+0 0  9994
2 42818   0.0191  50.0878 0001878  68.2072 230.1718  1.00272874 33114
INTELSAT 37E (IS-37E)   
1 42950U 17059A   26198.23864380 -.00000151  00000+0  00000+0 0  9998
2 42950   0.0142  70.0720 0002598  50.2675 242.6145  1.00272761 32368
AZERSPACE 2 (IS-38)     
1 43632U 18074A   26198.20552025  .00000000  00000+0  00000+0 0  9993
2 43632   0.0222  57.3147 0001415  59.2089 297.6130  1.00270402 28742
HORIZONS-3E             
1 43633U 18074B   26198.23013369 -.00000041  00000+0  00000+0 0  9996
2 43633   0.0273 229.1429 0000933  57.7490 259.9933  1.00272627 28646
AT&T T-16               
1 44333U 19034A   26197.96275847 -.00000126  00000+0  00000+0 0  9995
2 44333   0.0156  72.9858 0000711 264.8400 202.6904  1.00272918 25935
INTELSAT 39 (IS-39)     
1 44476U 19049B   26198.06631521  .00000000  00000+0  00000+0 0  9996
2 44476   0.0198  53.9430 0000935 293.4619  33.3157  1.00269158 25427
GALAXY 30 (G-30)        
1 46114U 20056C   26198.24316310  .00000000  00000+0  00000+0 0  9993
2 46114   0.0218  59.1220 0002222  59.4475 139.0435  1.00270833 21596
GALAXY 33 (G-33)        
1 54026U 22128A   26198.24160310  .00000069  00000+0  00000+0 0  9998
2 54026   0.0147  60.3719 0001822  53.0105 135.6434  1.00269560 14048
GALAXY 34 (G-34)        
1 54027U 22128B   26198.24238310  .00000049  00000+0  00000+0 0  9993
2 54027   0.0100  60.2589 0001571  62.7326 130.3159  1.00267690 14212
GALAXY 31 (G-31)        
1 54243U 22153A   26198.17267343  .00000003  00000+0  00000+0 0  9991
2 54243   0.0169  92.1300 0001064  27.4573 116.5480  1.00271807  7435
GALAXY 32 (G-32)        
1 54244U 22153B   26198.24988808 -.00000184  00000+0  00000+0 0  9997
2 54244   0.0104  47.3171 0001377 358.5249 248.1834  1.00272434 13448
GALAXY 35 (G-35)        
1 54741U 22170A   26198.24945475 -.00000172  00000+0  00000+0 0  9998
2 54741   0.0150  81.5982 0001847  34.8105 175.3484  1.00272251 13199
GALAXY 36 (G-36)        
1 54742U 22170B   26198.25032141 -.00000195  00000+0  00000+0 0  9992
2 54742   0.0148 138.1492 0002588 320.6083 197.4244  1.00271883 13072
GALAXY 37 (G-37)        
1 57493U 23112A   26198.24272977  .00000000  00000+0  00000+0 0  9991
2 57493   0.0192  54.9239 0001989  60.5977 139.9330  1.00269846 10842
